{
  "type": "FeatureCollection",
  "features": [
    {
      "type": "Feature",
      "properties": {
        "norad_id": 66924,
        "name": "CZ-8A R/B",
        "group": "last-30-days",
        "lat": -18.78584832612534,
        "lon": -27.760526780775354,
        "alt_km": 827.3232617914982,
        "timestamp": "2025-12-08T03:50:05.785417+00:00",
        "meta_object_name": "CZ-8A R/B",
        "meta_object_id": "2025-285K",
        "meta_epoch": "2025-12-06T12:19:51.036960",
        "meta_mean_motion": 14.30448863,
        "meta_eccentricity": 0.0118852,
        "meta_inclination": 50.0062,
        "meta_ra_of_asc_node": 142.6566,
        "meta_arg_of_pericenter": 84.4915,
        "meta_mean_anomaly": 276.9544,
        "meta_ephemeris_type": 0,
        "meta_classification_type": "U",
        "meta_norad_cat_id": 66924,
        "meta_element_set_no": 999,
        "meta_rev_at_epoch": 3,
        "meta_bstar": 2.573e-05,
        "meta_mean_motion_dot": -9.5e-07,
        "meta_mean_motion_ddot": 0,
        "tle_line1": "1 66924U 25285K   25340.51378515 -.00000095  00000+0  25730-4 0  9993",
        "tle_line2": "2 66924  50.0062 142.6566 0118852  84.4915 276.9544 14.30448863    39"
      },
      "geometry": {
        "type": "Point",
        "coordinates": [
          -27.760526780775354,
          -18.78584832612534
        ]
      }
    }
  ]
}